STARLINK-4744           
1 53788U 22111R   22275.91667824 -.00033976  00000+0 -14138-3 0  9998
2 53788  53.2026 157.6560 0006483 322.4066  87.0549 15.84628321  1302
STARLINK-4666           
1 53789U 22111S   22276.25001157 -.00010753  00000+0 -72151-4 0  9996
2 53789  53.2159 157.2729 0001054  68.7173 180.4985 15.73246619  3422
STARLINK-4734           
1 53790U 22111T   22276.25001157 -.00046271  00000+0 -32583-3 0  9996
2 53790  53.2159 157.2772 0001284 117.7200 129.7075 15.73288597  3420
STARLINK U              
1 53791U 22111U   22275.97102422  .00687876  00000+0  26143-2 0  9996
2 53791  53.2029 157.3809 0007995 305.1940  54.8336 15.85299926  3472
STARLINK-4739           
1 53792U 22111V   22276.25001157 -.00021547  00000+0 -14904-3 0  9994
2 53792  53.2161 157.2747 0001607 151.3940  97.1429 15.73269957  3421
STARLINK-4728           
1 53793U 22111W   22275.91667824  .00058870  00000+0  42107-3 0  9999
2 53793  53.2165 158.9206 0000920 109.8954  51.6098 15.73192655  1306
STARLINK-4730           
1 53794U 22111X   22275.91667824  .00056413  00000+0  40356-3 0  9995
2 53794  53.2156 158.9203 0001105 135.5930  25.2457 15.73206472  1309
STARLINK-4742           
1 53795U 22111Y   22276.25001157 -.00015220  00000+0 -10394-3 0  9997
2 53795  53.2160 157.2698 0001756 157.7953  93.2453 15.73260490  3424
STARLINK Z              
1 53796U 22111Z   22276.09605614  .00192304  00000+0  78339-3 0  9998
2 53796  53.2028 156.7381 0006244 321.9289  38.1294 15.85096478  3499
STARLINK-4723           
1 53797U 22111AA  22276.25001157 -.00061006  00000+0 -43160-3 0  9999
2 53797  53.2166 157.2678 0001195 100.2041 151.9901 15.73297615  3427
STARLINK-4712           
1 53798U 22111AB  22276.25001157 -.00058581  00000+0 -41405-3 0  9994
2 53798  53.2151 157.2671 0001120 110.2000 141.3720 15.73303183  3418
STARLINK-4710           
1 53799U 22111AC  22275.91667824  .00057576  00000+0  41202-3 0  9992
2 53799  53.2166 158.9148 0001151 109.0187  55.4563 15.73189913  1307
STARLINK-4720           
1 53800U 22111AD  22276.58334491  .00021978  00000+0  16039-3 0  9997
2 53800  53.2168 155.6151 0001032 119.0595 222.7965 15.73231006  3467
STARLINK-4715           
1 53801U 22111AE  22276.25001157 -.00002040  00000+0 -10094-4 0  9999
2 53801  53.2157 157.2619 0000810 106.2596 148.3473 15.73268318  3413
STARLINK-4726           
1 53802U 22111AF  22276.58334491  .00141619  00000+0  99698-3 0  9996
2 53802  53.2163 155.6121 0001355 110.6525 232.3633 15.73189700  3461
STARLINK-4727           
1 53803U 22111AG  22276.58334491  .00029600  00000+0  21443-3 0  9995
2 53803  53.2155 155.6069 0001277 113.2699 231.5522 15.73215837  3467
STARLINK-4729           
1 53804U 22111AH  22276.58334491  .00008943  00000+0  67987-4 0  9997
2 53804  53.2159 155.6089 0001401 119.7005 224.5142 15.73229236  3463
STARLINK-4763           
1 53805U 22111AJ  22276.25001157 -.00003013  00000+0 -17011-4 0  9990
2 53805  53.2155 157.2569 0001053 113.0719 143.3191 15.73265905  3413
STARLINK-4768           
1 53806U 22111AK  22276.58334491  .00008323  00000+0  63346-4 0  9996
2 53806  53.2171 155.6081 0001215 130.2675 215.3621 15.73316953  3468
BLUEWALKER-3            
1 53807U 22111AL  22275.83975176  .00003233  00000+0  17051-3 0  9991
2 53807  53.2016 168.0475 0012730 357.7828   2.3110 15.18372637  3324
FALCON 9 DEB            
1 53808U 22111AM  22276.18958165  .00455431  90012-4  14262-2 0  9998
2 53808  53.2019 155.8833 0007224 287.4061  72.6176 15.90901199  3514
FALCON 9 DEB            
1 53809U 22111AN  22276.39183890  .00266112  00000+0  95005-3 0  9991
2 53809  53.1998 155.0151 0005910 331.4296  28.6406 15.87616448  4597
FALCON 9 DEB            
1 53810U 22111AP  22275.94345117  .00226800  00000+0  79502-3 0  9999
2 53810  53.2001 157.1909 0008871 329.4939  30.5571 15.88053352  3470
FALCON 9 DEB            
1 53811U 22111AQ  22276.09616565  .00244318  00000+0  95057-3 0  9992
2 53811  53.1951 156.7276 0006004 288.4025  71.6347 15.85911965  3491
FALCON 9 DEB            
1 53812U 22111AR  22275.97079253  .00170293  00000+0  69315-3 0  9994
2 53812  53.1977 157.3702 0007860 303.9303  56.0974 15.85159087  3474
CHINASAT 1E (ZX 1E)     
1 53813U 22112A   22276.50247850 -.00000161  00000+0  00000+0 0  9995
2 53813   1.4758 280.2092 0002632 249.7651 104.5029  1.00270514   288
CZ-7A R/B               
1 53814U 22112B   22271.48551843  .12436359  37052-4  53487-2 0  9994
2 53814  13.9255 205.6605 6675946 187.1733 153.6033  3.18733824   364
STRIX-1                 
1 53815U 22113A   22276.50115483  .00004155  00000+0  33915-3 0  9995
2 53815  97.6595 327.1537 0012215 239.7172 120.2864 14.99912881  2642
ELECTRON KICK STAGE R/B 
1 53817U 22113C   22276.22957160  .00004898  00000+0  39453-3 0  9999
2 53817  97.6579 326.8955 0012643 235.4740 124.5289 15.00330017  2607
STARLINK-4749           
1 53818U 22114A   22276.58334491  .00137246  00000+0  96950-3 0  9995
2 53818  53.2146 186.8478 0001101 119.4004 149.8216 15.73125189  2861
STARLINK-4738           
1 53819U 22114B   22276.25001157 -.00033403  00000+0 -23267-3 0  9993
2 53819  53.2143 188.4932 0001287  62.9848 119.7279 15.73383780  2818
STARLINK-4758           
1 53820U 22114C   22276.25001157  .00133516  00000+0  94844-3 0  9998
2 53820  53.2145 188.4973 0001174  97.4599  83.8230 15.73007571  2817
STARLINK-4752           
1 53821U 22114D   22276.58334491 -.00038546  00000+0 -26926-3 0  9990
2 53821  53.2146 186.8432 0000686  99.4187 171.7291 15.73392034  2863
STARLINK-4713           
1 53822U 22114E   22276.60310428  .00662432  11598-4  51989-3 0  9999
2 53822  53.2121 184.5576 0050361  98.8576 261.8167 16.11038043  2897
STARLINK-4748           
1 53823U 22114F   22275.91667824  .00186784  23552-4  65204-3 0  9997
2 53823  53.2130 189.1524 0017864  91.0954 122.6183 15.88724115  2772
STARLINK-4757           
1 53824U 22114G   22276.25001157 -.00040507  00000+0 -28212-3 0  9997
2 53824  53.2161 188.4979 0001104  58.6612 124.9573 15.73483881  2812
STARLINK-4751           
1 53825U 22114H   22275.91667824  .00048721  00000+0  34958-3 0  9997
2 53825  53.2152 190.1414 0001160  74.1566  20.4774 15.73197889  2767
STARLINK-4756           
1 53826U 22114J   22276.25001157  .00011452  00000+0  86175-4 0  9997
2 53826  53.2147 188.4863 0001373 109.0360  78.0467 15.73125073  2816
STARLINK-4764           
1 53827U 22114K   22276.58334491  .00000961  00000+0  11245-4 0  9993
2 53827  53.2146 186.8377 0001353  48.8348 225.0009 15.73251990  2861
STARLINK-4760           
1 53828U 22114L   22276.58334491  .00009098  00000+0  68899-4 0  9991
2 53828  53.2146 186.8342 0000826  94.5643 181.4935 15.73291373  2866
STARLINK-4759           
1 53829U 22114M   22276.25001157 -.00023231  00000+0 -16107-3 0  9997
2 53829  53.2155 188.4925 0001623  47.5649 137.8984 15.73268817  2813
STARLINK-4761           
1 53830U 22114N   22275.91667824 -.00012888  00000+0 -87287-4 0  9994
2 53830  53.2152 190.1318 0001022  87.5529  11.8811 15.73270417  2765
STARLINK-4649           
1 53831U 22114P   22276.25001157 -.00014916  00000+0 -10171-3 0  9995
2 53831  53.2146 188.4884 0001067  85.4904 100.5537 15.73277676  2811
STARLINK-4747           
1 53832U 22114Q   22276.58334491  .00074962  00000+0  53359-3 0  9992
2 53832  53.2145 186.8288 0001009  93.9416 184.6871 15.73208177  2868
STARLINK-4771           
1 53833U 22114R   22276.25001157  .00046049  00000+0  32996-3 0  9996
2 53833  53.2140 188.4826 0001064  78.8663 108.9026 15.73253865  2817
STARLINK-4737           
1 53834U 22114S   22276.58334491 -.00030468  00000+0 -21125-3 0  9995
2 53834  53.2148 186.8284 0001170 114.4247 164.8114 15.73440785  2862
STARLINK-4783           
1 53835U 22114T   22276.58334491 -.00033582  00000+0 -23677-3 0  9990
2 53835  53.2141 186.8277 0000971  70.9958 207.5492 15.73106517  2867
STARLINK-4778           
1 53836U 22114U   22276.58334491  .00021666  00000+0  15809-3 0  9997
2 53836  53.2158 186.8223 0000839  82.8304 198.1707 15.73244068  2865
STARLINK-4776           
1 53837U 22114V   22275.91667824  .00020867  00000+0  15264-3 0  9990
2 53837  53.2153 190.1294 0001055  92.7865   8.4845 15.73212967  2768
STARLINK-4773           
1 53838U 22114W   22276.58334491 -.00040405  00000+0 -28415-3 0  9990
2 53838  53.2148 186.8243 0000977  84.7885 196.7801 15.73258285  2861
STARLINK-4784           
1 53839U 22114X   22276.25001157  .00018458  00000+0  13529-3 0  9996
2 53839  53.2150 188.4791 0001225  69.7779 121.5950 15.73260672  2812
STARLINK-4766           
1 53840U 22114Y   22275.91667824  .00053203  00000+0  38103-3 0  9991
2 53840  53.2145 190.1187 0001279  90.8331  14.5287 15.73204039  2768
STARLINK-4750           
1 53841U 22114Z   22276.25001157 -.00019394  00000+0 -13382-3 0  9998
2 53841  53.2147 188.4739 0001096  74.3730 118.8585 15.73245563  2813
STARLINK-4754           
1 53842U 22114AA  22275.91667824  .00050998  00000+0  36537-3 0  9990
2 53842  53.2147 190.1165 0001057  75.7824  30.7435 15.73213106  2761
STARLINK-4769           
1 53843U 22114AB  22276.25001157  .00026052  00000+0  18897-3 0  9993
2 53843  53.2157 188.4694 0001132  72.4502 121.2503 15.73261329  2819
STARLINK-4745           
1 53844U 22114AC  22276.25001157  .00031803  00000+0  22967-3 0  9997
2 53844  53.2145 188.4668 0001270  68.6659 128.0634 15.73249958  2815
STARLINK-4753           
1 53845U 22114AD  22276.25001157  .00036421  00000+0  26207-3 0  9990
2 53845  53.2151 188.4728 0001052  65.2041 129.6641 15.73264739  2815
STARLINK-4746           
1 53846U 22114AE  22275.91667824  .00052919  00000+0  37906-3 0  9990
2 53846  53.2155 190.1154 0001083 100.0909   8.8537 15.73202293  2761
STARLINK-4777           
1 53847U 22114AF  22276.58334491 -.00041726  00000+0 -29352-3 0  9998
2 53847  53.2144 186.8152 0001033  92.7973 192.3439 15.73266566  2867
